OBJECT_NAME,OBJECT_ID,EPOCH,MEAN_MOTION,ECCENTRICITY,INCLINATION,RA_OF_ASC_NODE,ARG_OF_PERICENTER,MEAN_ANOMALY,EPHEMERIS_TYPE,CLASSIFICATION_TYPE,NORAD_CAT_ID,ELEMENT_SET_NO,REV_AT_EPOCH,BSTAR,MEAN_MOTION_DOT,MEAN_MOTION_DDOT
LDPE-2,2022-144A,2026-07-14T05:08:50.442144,1.00543453,.000237,5.6762,63.4247,110.1611,64.1900,0,U,54219,999,1211,0,.23E-6,0
EUTELSAT HOTBIRD 13G,2022-146A,2026-07-13T20:22:14.711232,1.00268715,.0002419,0.0146,236.0241,309.3765,64.8996,0,U,54225,999,773,0,0,0
ZHONGXING-19,2022-148A,2026-07-14T03:55:35.197248,1.00269370,.0002982,0.0187,45.1544,94.8189,14.1471,0,U,54230,999,1365,0,0,0
GALAXY 31 (G-31),2022-153A,2026-07-14T05:14:34.480896,1.00270892,.0000962,0.0161,68.2238,51.4702,130.0140,0,U,54243,999,740,0,.7E-7,0
GALAXY 32 (G-32),2022-153B,2026-07-13T12:13:38.932032,1.00269974,.00014004,0.0121,29.6563,18.1075,336.0269,0,U,54244,999,1340,0,-.178E-5,0
EUTELSAT 10B,2022-157A,2026-07-13T20:21:14.804928,1.00267733,.0001843,0.0596,94.5144,32.7827,119.7186,0,U,54259,999,1329,0,.62E-6,0
GALAXY 35 (G-35),2022-170A,2026-07-14T03:00:35.110368,1.00268459,.0001918,0.0266,69.7707,47.6160,126.6479,0,U,54741,999,1316,0,0,0
GALAXY 36 (G-36),2022-170B,2026-07-13T23:18:24.341184,1.00270487,.0002386,0.0093,133.9399,326.3362,92.1618,0,U,54742,999,1304,0,-.191E-5,0
METEOSAT-12 (MTG-I1),2022-170C,2026-07-14T03:09:02.160000,1.00267426,.0003778,0.7239,19.5033,82.3169,237.1294,0,U,54743,999,1324,0,-.15E-6,0
SHIJIAN-23 (SJ-23),2023-002A,2026-07-13T18:34:53.605056,1.00077393,.0003432,3.7833,77.9768,270.3095,352.1879,0,U,55131,999,1277,0,-.357E-5,0
APSTAR-6E,2023-005A,2026-07-13T19:14:00.858912,1.00265658,.0001717,0.0668,239.2682,340.0712,134.8519,0,U,55239,999,1895,0,-.323E-5,0
USA 342,2023-008A,2026-07-09T06:55:38.597952,1.00269378,.0000262,0.0052,352.2306,7.3445,55.4773,0,U,55263,999,1273,0,0,0
LDPE-3A,2023-008B,2026-07-13T22:41:50.347104,0.99150476,.0001505,2.4153,81.3327,79.3847,254.3877,0,U,55264,999,1207,0,-.303E-5,0
ELEKTRO-L 4,2023-016A,2026-07-13T17:30:21.957120,1.00269889,.000152,0.1240,277.9469,268.5130,173.5238,0,U,55506,999,1260,0,-.63E-6,0
AMAZONAS NEXUS,2023-017A,2026-07-13T18:18:24.198048,1.00268939,.0004364,0.0356,42.7695,42.6416,59.8176,0,U,55508,999,731,0,-.287E-5,0
ZHONGXING-26,2023-023A,2026-07-14T00:19:23.765664,1.00267642,.0003172,0.0634,70.6483,27.0927,324.0938,0,U,55686,999,1249,0,-.36E-5,0
LUCH-5X (OLYMP-K 2),2023-031A,2026-07-13T17:10:49.441728,1.00271441,.0000896,0.0297,94.8289,172.1151,344.3269,0,U,55841,999,1220,0,.29E-6,0
GAOFEN-13 02,2023-036A,2026-07-13T17:29:49.108704,1.00274536,.0003724,1.0272,4.3821,336.0876,1.8028,0,U,55912,999,1235,0,-.223E-5,0
SES-18,2023-038A,2026-07-14T02:58:50.206944,1.00271595,.000083,0.0557,258.0124,311.3054,24.2918,0,U,55970,999,1237,0,-.107E-5,0
SES-19,2023-038B,2026-07-12T23:08:12.649920,1.00273078,.00015959,0.0165,326.4823,156.8223,19.7105,0,U,55971,999,1235,0,.86E-6,0
INTELSAT 40E (IS-40E),2023-052A,2026-07-14T02:43:06.312864,1.00269225,.0002275,0.0256,70.6263,75.6573,95.4875,0,U,56174,999,1209,0,0,0
VIASAT-3 F1,2023-060A,2026-07-12T14:47:59.500896,1.00270234,.00010194,0.0161,22.0903,87.2892,314.1503,0,U,56370,999,1168,0,0,0
ARCTURUS,2023-060B,2026-07-14T01:54:12.690720,1.00595160,.0000933,2.8414,79.6072,132.0136,206.5999,0,U,56371,999,1172,0,-.339E-5,0
GS-1,2023-060C,2026-07-13T22:26:36.807072,1.00267117,.0003404,2.7922,79.5163,281.1231,357.1420,0,U,56372,999,780,0,-.23E-5,0
BEIDOU-3 G4,2023-066A,2026-07-14T05:31:38.740800,1.00272748,.0004877,0.4614,338.6274,187.7470,348.6909,0,U,56564,999,1166,0,-.287E-5,0
ARABSAT-7B (BADR-8),2023-075A,2026-07-13T01:36:42.399360,1.00271123,.0003307,0.0751,31.4954,358.8618,310.7639,0,U,56757,999,1137,0,.143E-5,0
NVS-01 (IRNSS-1J),2023-076A,2026-07-14T00:20:38.645088,1.00265168,.0003567,2.1045,243.1361,7.3766,175.9783,0,U,56759,999,1138,0,-.342E-5,0
NUSANTARA TIGA (SATRIA),2023-086A,2026-07-13T12:36:13.143168,1.00267768,.00021926,0.0347,13.2245,326.8860,286.3349,0,U,57045,999,1002,0,-.239E-5,0
H2SAT (HEINRICH HERTZ),2023-093A,2026-07-14T03:09:17.134848,1.00269980,.0000382,0.0212,98.1564,50.2470,191.6036,0,U,57213,999,1118,0,-.5E-7,0
SYRACUSE 4B,2023-093B,2026-07-13T13:26:01.019328,1.00269537,.0000448,0.0280,56.3015,204.3313,225.8578,0,U,57214,999,723,0,0,0
JUPITER 3 (ECHOSTAR 24),2023-108A,2026-07-13T10:55:27.126048,1.00272946,.0001178,0.0124,33.8048,74.3050,251.8897,0,U,57479,999,1090,0,-.154E-5,0
GALAXY 37 (G-37),2023-112A,2026-07-13T23:07:32.880864,1.00271325,.0001739,0.0218,73.5270,44.1230,34.0616,0,U,57493,999,1081,0,.42E-6,0
